[{"OBJECT_NAME":"STARLINK-11346 [DTC]","OBJECT_ID":"2024-195L","EPOCH":"2026-02-16T12:47:32.950464","MEAN_MOTION":15.69705079,"ECCENTRICITY":0.0001033,"INCLINATION":53.1591,"RA_OF_ASC_NODE":130.3367,"ARG_OF_PERICENTER":131.8045,"MEAN_ANOMALY":228.3061,"EPHEMERIS_TYPE":0,"CLASSIFICATION_TYPE":"U","NORAD_CAT_ID":61697,"ELEMENT_SET_NO":999,"REV_AT_EPOCH":7571,"BSTAR":-1.2026e-5,"MEAN_MOTION_DOT":-2.045e-5,"MEAN_MOTION_DDOT":0},{"OBJECT_NAME":"STARLINK-11296 [DTC]","OBJECT_ID":"2024-195N","EPOCH":"2026-02-16T12:33:25.863264","MEAN_MOTION":15.69697,"ECCENTRICITY":0.000131,"INCLINATION":53.1581,"RA_OF_ASC_NODE":130.2781,"ARG_OF_PERICENTER":55.3703,"MEAN_ANOMALY":304.7438,"EPHEMERIS_TYPE":0,"CLASSIFICATION_TYPE":"U","NORAD_CAT_ID":61699,"ELEMENT_SET_NO":999,"REV_AT_EPOCH":7571,"BSTAR":3.809e-6,"MEAN_MOTION_DOT":-1.28e-6,"MEAN_MOTION_DDOT":0},{"OBJECT_NAME":"STARLINK-32349","OBJECT_ID":"2024-195P","EPOCH":"2026-02-16T19:26:06.571392","MEAN_MOTION":15.30178822,"ECCENTRICITY":0.0001575,"INCLINATION":53.1577,"RA_OF_ASC_NODE":252.4188,"ARG_OF_PERICENTER":56.1563,"MEAN_ANOMALY":303.9587,"EPHEMERIS_TYPE":0,"CLASSIFICATION_TYPE":"U","NORAD_CAT_ID":61700,"ELEMENT_SET_NO":999,"REV_AT_EPOCH":7398,"BSTAR":1.7332e-5,"MEAN_MOTION_DOT":1.54e-6,"MEAN_MOTION_DDOT":0},{"OBJECT_NAME":"STARLINK-32461","OBJECT_ID":"2024-195Q","EPOCH":"2026-02-16T19:12:25.561440","MEAN_MOTION":15.30188526,"ECCENTRICITY":0.0001197,"INCLINATION":53.1586,"RA_OF_ASC_NODE":252.3548,"ARG_OF_PERICENTER":89.0167,"MEAN_ANOMALY":271.0971,"EPHEMERIS_TYPE":0,"CLASSIFICATION_TYPE":"U","NORAD_CAT_ID":61701,"ELEMENT_SET_NO":999,"REV_AT_EPOCH":7398,"BSTAR":7.6698e-6,"MEAN_MOTION_DOT":-1.32e-6,"MEAN_MOTION_DDOT":0},{"OBJECT_NAME":"STARLINK-32299","OBJECT_ID":"2024-195R","EPOCH":"2026-02-16T18:52:39.964224","MEAN_MOTION":15.30192629,"ECCENTRICITY":0.0001164,"INCLINATION":53.1596,"RA_OF_ASC_NODE":252.2677,"ARG_OF_PERICENTER":92.4317,"MEAN_ANOMALY":267.6817,"EPHEMERIS_TYPE":0,"CLASSIFICATION_TYPE":"U","NORAD_CAT_ID":61702,"ELEMENT_SET_NO":999,"REV_AT_EPOCH":7405,"BSTAR":2.44e-5,"MEAN_MOTION_DOT":3.63e-6,"MEAN_MOTION_DDOT":0},{"OBJECT_NAME":"STARLINK-32387","OBJECT_ID":"2024-195T","EPOCH":"2026-02-16T18:22:16.392864","MEAN_MOTION":15.30188282,"ECCENTRICITY":0.0001391,"INCLINATION":53.1591,"RA_OF_ASC_NODE":252.1379,"ARG_OF_PERICENTER":103.6296,"MEAN_ANOMALY":256.486,"EPHEMERIS_TYPE":0,"CLASSIFICATION_TYPE":"U","NORAD_CAT_ID":61704,"ELEMENT_SET_NO":999,"REV_AT_EPOCH":7398,"BSTAR":1.3773e-5,"MEAN_MOTION_DOT":4.9e-7,"MEAN_MOTION_DDOT":0},{"OBJECT_NAME":"STARLINK-32515","OBJECT_ID":"2024-195U","EPOCH":"2026-02-16T18:20:52.058688","MEAN_MOTION":15.30217337,"ECCENTRICITY":0.0001338,"INCLINATION":53.1598,"RA_OF_ASC_NODE":252.8412,"ARG_OF_PERICENTER":87.2515,"MEAN_ANOMALY":272.8638,"EPHEMERIS_TYPE":0,"CLASSIFICATION_TYPE":"U","NORAD_CAT_ID":61705,"ELEMENT_SET_NO":999,"REV_AT_EPOCH":7397,"BSTAR":0.00010522,"MEAN_MOTION_DOT":2.76e-5,"MEAN_MOTION_DDOT":0},{"OBJECT_NAME":"STARLINK-32533","OBJECT_ID":"2024-195V","EPOCH":"2026-02-16T18:25:18.931872","MEAN_MOTION":15.30189859,"ECCENTRICITY":0.0001391,"INCLINATION":53.1597,"RA_OF_ASC_NODE":252.1508,"ARG_OF_PERICENTER":79.2794,"MEAN_ANOMALY":280.8364,"EPHEMERIS_TYPE":0,"CLASSIFICATION_TYPE":"U","NORAD_CAT_ID":61706,"ELEMENT_SET_NO":999,"REV_AT_EPOCH":7398,"BSTAR":1.3808e-5,"MEAN_MOTION_DOT":5.0e-7,"MEAN_MOTION_DDOT":0},{"OBJECT_NAME":"STARLINK-32376","OBJECT_ID":"2024-196A","EPOCH":"2026-02-16T19:18:51.291648","MEAN_MOTION":15.30174767,"ECCENTRICITY":0.0001511,"INCLINATION":53.1598,"RA_OF_ASC_NODE":198.0193,"ARG_OF_PERICENTER":120.9327,"MEAN_ANOMALY":239.1823,"EPHEMERIS_TYPE":0,"CLASSIFICATION_TYPE":"U","NORAD_CAT_ID":61707,"ELEMENT_SET_NO":999,"REV_AT_EPOCH":7397,"BSTAR":4.6877e-5,"MEAN_MOTION_DOT":1.028e-5,"MEAN_MOTION_DDOT":0},{"OBJECT_NAME":"STARLINK-32402","OBJECT_ID":"2024-196B","EPOCH":"2026-02-16T16:51:46.620288","MEAN_MOTION":15.30191671,"ECCENTRICITY":9.3e-5,"INCLINATION":53.1584,"RA_OF_ASC_NODE":198.801,"ARG_OF_PERICENTER":64.4253,"MEAN_ANOMALY":295.6844,"EPHEMERIS_TYPE":0,"CLASSIFICATION_TYPE":"U","NORAD_CAT_ID":61708,"ELEMENT_SET_NO":999,"REV_AT_EPOCH":7394,"BSTAR":4.7872e-5,"MEAN_MOTION_DOT":1.059e-5,"MEAN_MOTION_DDOT":0},{"OBJECT_NAME":"STARLINK-32314","OBJECT_ID":"2024-196C","EPOCH":"2026-02-16T19:38:36.691008","MEAN_MOTION":15.30191495,"ECCENTRICITY":0.0001347,"INCLINATION":53.1604,"RA_OF_ASC_NODE":198.1011,"ARG_OF_PERICENTER":65.6603,"MEAN_ANOMALY":294.4538,"EPHEMERIS_TYPE":0,"CLASSIFICATION_TYPE":"U","NORAD_CAT_ID":61709,"ELEMENT_SET_NO":999,"REV_AT_EPOCH":7396,"BSTAR":4.8697e-5,"MEAN_MOTION_DOT":1.083e-5,"MEAN_MOTION_DDOT":0},{"OBJECT_NAME":"STARLINK-32404","OBJECT_ID":"2024-196D","EPOCH":"2026-02-16T18:56:12.951456","MEAN_MOTION":15.30196976,"ECCENTRICITY":0.0001162,"INCLINATION":53.16,"RA_OF_ASC_NODE":198.6321,"ARG_OF_PERICENTER":100.6607,"MEAN_ANOMALY":259.4525,"EPHEMERIS_TYPE":0,"CLASSIFICATION_TYPE":"U","NORAD_CAT_ID":61710,"ELEMENT_SET_NO":999,"REV_AT_EPOCH":7395,"BSTAR":4.1825e-5,"MEAN_MOTION_DOT":8.8e-6,"MEAN_MOTION_DDOT":0},{"OBJECT_NAME":"STARLINK-32312","OBJECT_ID":"2024-196E","EPOCH":"2026-02-16T16:19:52.304736","MEAN_MOTION":15.3018544,"ECCENTRICITY":0.0001353,"INCLINATION":53.1608,"RA_OF_ASC_NODE":198.663,"ARG_OF_PERICENTER":83.5786,"MEAN_ANOMALY":276.5369,"EPHEMERIS_TYPE":0,"CLASSIFICATION_TYPE":"U","NORAD_CAT_ID":61711,"ELEMENT_SET_NO":999,"REV_AT_EPOCH":7394,"BSTAR":7.5136e-6,"MEAN_MOTION_DOT":-1.37e-6,"MEAN_MOTION_DDOT":0},{"OBJECT_NAME":"STARLINK-32343","OBJECT_ID":"2024-196F","EPOCH":"2026-02-16T15:32:55.824576","MEAN_MOTION":15.30182543,"ECCENTRICITY":0.0001231,"INCLINATION":53.1599,"RA_OF_ASC_NODE":199.1731,"ARG_OF_PERICENTER":88.8468,"MEAN_ANOMALY":271.2673,"EPHEMERIS_TYPE":0,"CLASSIFICATION_TYPE":"U","NORAD_CAT_ID":61712,"ELEMENT_SET_NO":999,"REV_AT_EPOCH":7393,"BSTAR":-7.6205e-6,"MEAN_MOTION_DOT":-5.85e-6,"MEAN_MOTION_DDOT":0},{"OBJECT_NAME":"STARLINK-32467","OBJECT_ID":"2024-196G","EPOCH":"2026-02-16T19:12:56.566944","MEAN_MOTION":15.30194858,"ECCENTRICITY":0.000112,"INCLINATION":53.1579,"RA_OF_ASC_NODE":198.7051,"ARG_OF_PERICENTER":70.525,"MEAN_ANOMALY":289.5871,"EPHEMERIS_TYPE":0,"CLASSIFICATION_TYPE":"U","NORAD_CAT_ID":61713,"ELEMENT_SET_NO":999,"REV_AT_EPOCH":7395,"BSTAR":8.8228e-5,"MEAN_MOTION_DOT":2.254e-5,"MEAN_MOTION_DDOT":0},{"OBJECT_NAME":"STARLINK-32440","OBJECT_ID":"2024-196H","EPOCH":"2026-02-16T16:57:51.680160","MEAN_MOTION":15.30189569,"ECCENTRICITY":0.0001243,"INCLINATION":53.1596,"RA_OF_ASC_NODE":198.8288,"ARG_OF_PERICENTER":99.9427,"MEAN_ANOMALY":260.1714,"EPHEMERIS_TYPE":0,"CLASSIFICATION_TYPE":"U","NORAD_CAT_ID":61714,"ELEMENT_SET_NO":999,"REV_AT_EPOCH":7394,"BSTAR":-6.1867e-6,"MEAN_MOTION_DOT":-5.42e-6,"MEAN_MOTION_DDOT":0},{"OBJECT_NAME":"STARLINK-32459","OBJECT_ID":"2024-196J","EPOCH":"2026-02-16T16:39:37.414656","MEAN_MOTION":15.30206747,"ECCENTRICITY":7.46e-5,"INCLINATION":53.1579,"RA_OF_ASC_NODE":198.7498,"ARG_OF_PERICENTER":69.3449,"MEAN_ANOMALY":290.7631,"EPHEMERIS_TYPE":0,"CLASSIFICATION_TYPE":"U","NORAD_CAT_ID":61715,"ELEMENT_SET_NO":999,"REV_AT_EPOCH":7394,"BSTAR":0.00015596,"MEAN_MOTION_DOT":4.264e-5,"MEAN_MOTION_DDOT":0}]
