STARLINK-11346 [DTC]    
1 61697U 24195L   26047.53302026 -.00002045  00000+0 -12026-4 0  9997
2 61697  53.1591 130.3367 0001033 131.8045 228.3061 15.69705079 75718
STARLINK-11296 [DTC]    
1 61699U 24195N   26047.52321601 -.00000128  00000+0  38090-5 0  9997
2 61699  53.1581 130.2781 0001310  55.3703 304.7438 15.69697000 75718
STARLINK-32349          
1 61700U 24195P   26047.80979828  .00000154  00000+0  17332-4 0  9994
2 61700  53.1577 252.4188 0001575  56.1563 303.9587 15.30178822 73987
STARLINK-32461          
1 61701U 24195Q   26047.80029585 -.00000132  00000+0  76698-5 0  9999
2 61701  53.1586 252.3548 0001197  89.0167 271.0971 15.30188526 73986
STARLINK-32299          
1 61702U 24195R   26047.78657366  .00000363  00000+0  24400-4 0  9999
2 61702  53.1596 252.2677 0001164  92.4317 267.6817 15.30192629 74057
STARLINK-32387          
1 61704U 24195T   26047.76546751  .00000049  00000+0  13773-4 0  9996
2 61704  53.1591 252.1379 0001391 103.6296 256.4860 15.30188282 73980
STARLINK-32515          
1 61705U 24195U   26047.76449142  .00002760  00000+0  10522-3 0  9993
2 61705  53.1598 252.8412 0001338  87.2515 272.8638 15.30217337 73973
STARLINK-32533          
1 61706U 24195V   26047.76758023  .00000050  00000+0  13808-4 0  9996
2 61706  53.1597 252.1508 0001391  79.2794 280.8364 15.30189859 73984
STARLINK-32376          
1 61707U 24196A   26047.80476032  .00001028  00000+0  46877-4 0  9998
2 61707  53.1598 198.0193 0001511 120.9327 239.1823 15.30174767 73972
STARLINK-32402          
1 61708U 24196B   26047.70262292  .00001059  00000+0  47872-4 0  9999
2 61708  53.1584 198.8010 0000930  64.4253 295.6844 15.30191671 73948
STARLINK-32314          
1 61709U 24196C   26047.81848022  .00001083  00000+0  48697-4 0  9996
2 61709  53.1604 198.1011 0001347  65.6603 294.4538 15.30191495 73964
STARLINK-32404          
1 61710U 24196D   26047.78903879  .00000880  00000+0  41825-4 0  9996
2 61710  53.1600 198.6321 0001162 100.6607 259.4525 15.30196976 73955
STARLINK-32312          
1 61711U 24196E   26047.68046649 -.00000137  00000+0  75136-5 0  9998
2 61711  53.1608 198.6630 0001353  83.5786 276.5369 15.30185440 73945
STARLINK-32343          
1 61712U 24196F   26047.64786834 -.00000585  00000+0 -76205-5 0  9998
2 61712  53.1599 199.1731 0001231  88.8468 271.2673 15.30182543 73933
STARLINK-32467          
1 61713U 24196G   26047.80065471  .00002254  00000+0  88228-4 0  9994
2 61713  53.1579 198.7051 0001120  70.5250 289.5871 15.30194858 73952
STARLINK-32440          
1 61714U 24196H   26047.70684815 -.00000542  00000+0 -61867-5 0  9994
2 61714  53.1596 198.8288 0001243  99.9427 260.1714 15.30189569 73945
STARLINK-32459          
1 61715U 24196J   26047.69418304  .00004264  00000+0  15596-3 0  9990
2 61715  53.1579 198.7498 0000746  69.3449 290.7631 15.30206747 73946
